QIANFAN-57              
1 62787U 25016C   25342.60349324  .00000213  00000+0  31074-3 0  9994
2 62787  88.9782 103.6253 0002164 124.3865 235.7491 13.50975101 46649
QIANFAN-58              
1 62788U 25016D   25342.57470466  .00000206  00000+0  30054-3 0  9992
2 62788  88.9751 103.4613 0013392   2.0394 358.0809 13.50976965 46683
QIANFAN-59              
1 62789U 25016E   25342.59937002  .00000215  00000+0  31414-3 0  9990
2 62789  88.9775 103.5314 0013876   5.7068 354.4238 13.50978592 46688
QIANFAN-60              
1 62790U 25016F   25342.63244089  .00000090  00000+0  12115-3 0  9991
2 62790  88.9756 103.5003 0015246   1.3692 358.7498 13.50981895 46676
QIANFAN-61              
1 62791U 25016G   25342.59115222  .00000204  00000+0  29776-3 0  9991
2 62791  88.9823 103.6646 0014228   1.2550 358.8634 13.50978940 46688
QIANFAN-62              
1 62792U 25016H   25342.59525607  .00000215  00000+0  31423-3 0  9998
2 62792  88.9770 103.5348 0015608   1.0431 359.0750 13.50975397 46671
QIANFAN-63              
1 62793U 25016J   25342.61999085  .00000215  00000+0  31357-3 0  9993
2 62793  88.9776 103.4836 0015804   6.4082 353.7268 13.50982130 46711
QIANFAN-64              
1 62794U 25016K   25342.58701512  .00000216  00000+0  31629-3 0  9999
2 62794  88.9763 103.4616 0013564   0.1556 359.9597 13.50977214 46701
